[
    {
        "Altitude(m)": 716015.8306120414,
        "Argument of Periapsis(deg)": 0.0011390121186627068,
        "Eccentricity": 0.0,
        "Inclination(deg)": 45.0,
        "Latitude(deg)": -40.63398524817833,
        "Longitude(deg)": -21.452187286983357,
        "Mean Anomaly(deg)": -113.39217833525191,
        "RAAN(deg)": 199.99892480585416,
        "Satellite Name": "Constellation 1 895",
        "Satellite Number": 895,
        "Semi-Major Axis(m)": 7083131.272910544,
        "Time(s)": 19
    },
    {
        "Altitude(m)": 716025.0799046085,
        "Argument of Periapsis(deg)": 0.0011989601249081123,
        "Eccentricity": 0.0,
        "Inclination(deg)": 45.0,
        "Latitude(deg)": -40.656328903872485,
        "Longitude(deg)": -21.382256577546364,
        "Mean Anomaly(deg)": -113.33147719500208,
        "RAAN(deg)": 199.9988682166886,
        "Satellite Name": "Constellation 1 895",
        "Satellite Number": 895,
        "Semi-Major Axis(m)": 7083131.272910544,
        "Time(s)": 20
    },
    {
        "Altitude(m)": 716034.3096235323,
        "Argument of Periapsis(deg)": 0.001258908131153518,
        "Eccentricity": 0.0,
        "Inclination(deg)": 45.0,
        "Latitude(deg)": -40.67862495681553,
        "Longitude(deg)": -21.31227663012201,
        "Mean Anomaly(deg)": -113.27077605475213,
        "RAAN(deg)": 199.99881162752303,
        "Satellite Name": "Constellation 1 895",
        "Satellite Number": 895,
        "Semi-Major Axis(m)": 7083131.272910544,
        "Time(s)": 21
    },
    {
        "Altitude(m)": 716043.5197350598,
        "Argument of Periapsis(deg)": 0.0013188561373989236,
        "Eccentricity": 0.0,
        "Inclination(deg)": 45.0,
        "Latitude(deg)": -40.700873338854294,
        "Longitude(deg)": -21.242247646287584,
        "Mean Anomaly(deg)": -113.21007491450227,
        "RAAN(deg)": 199.99875503835747,
        "Satellite Name": "Constellation 1 895",
        "Satellite Number": 895,
        "Semi-Major Axis(m)": 7083131.272910544,
        "Time(s)": 22
    },
    {
        "Altitude(m)": 716052.7102055064,
        "Argument of Periapsis(deg)": 0.0013788041436443293,
        "Eccentricity": 0.0,
        "Inclination(deg)": 45.0,
        "Latitude(deg)": -40.72307398186198,
        "Longitude(deg)": -21.17216932381327,
        "Mean Anomaly(deg)": -113.14937377425231,
        "RAAN(deg)": 199.9986984491919,
        "Satellite Name": "Constellation 1 895",
        "Satellite Number": 895,
        "Semi-Major Axis(m)": 7083131.272910544,
        "Time(s)": 23
    },
    {
        "Altitude(m)": 716061.8810012593,
        "Argument of Periapsis(deg)": 0.001438752149889735,
        "Eccentricity": 0.0,
        "Inclination(deg)": 45.0,
        "Latitude(deg)": -40.74522681774029,
        "Longitude(deg)": -21.10204186524712,
        "Mean Anomaly(deg)": -113.08867263400245,
        "RAAN(deg)": 199.99864186002634,
        "Satellite Name": "Constellation 1 895",
        "Satellite Number": 895,
        "Semi-Major Axis(m)": 7083131.272910544,
        "Time(s)": 24
    },
    {
        "Altitude(m)": 716071.032088767,
        "Argument of Periapsis(deg)": 0.0014987001561351404,
        "Eccentricity": 0.0,
        "Inclination(deg)": 45.0,
        "Latitude(deg)": -40.76733177841925,
        "Longitude(deg)": -21.031865305526704,
        "Mean Anomaly(deg)": -113.02797149375256,
        "RAAN(deg)": 199.99858527086076,
        "Satellite Name": "Constellation 1 895",
        "Satellite Number": 895,
        "Semi-Major Axis(m)": 7083131.272910544,
        "Time(s)": 25
    },
    {
        "Altitude(m)": 716080.1634345632,
        "Argument of Periapsis(deg)": 0.001558648162380546,
        "Eccentricity": 0.0,
        "Inclination(deg)": 45.0,
        "Latitude(deg)": -40.78938879585799,
        "Longitude(deg)": -20.961639680078207,
        "Mean Anomaly(deg)": -112.96727035350263,
        "RAAN(deg)": 199.99852868169518,
        "Satellite Name": "Constellation 1 895",
        "Satellite Number": 895,
        "Semi-Major Axis(m)": 7083131.272910544,
        "Time(s)": 26
    },
    {
        "Altitude(m)": 716089.2750052315,
        "Argument of Periapsis(deg)": 0.0016185961686259519,
        "Eccentricity": 0.0,
        "Inclination(deg)": 45.0,
        "Latitude(deg)": -40.81139780204557,
        "Longitude(deg)": -20.891365024817027,
        "Mean Anomaly(deg)": -112.90656921325268,
        "RAAN(deg)": 199.99847209252962,
        "Satellite Name": "Constellation 1 895",
        "Satellite Number": 895,
        "Semi-Major Axis(m)": 7083131.272910544,
        "Time(s)": 27
    },
    {
        "Altitude(m)": 716098.3667674419,
        "Argument of Periapsis(deg)": 0.0016785441748713573,
        "Eccentricity": 0.0,
        "Inclination(deg)": 45.0,
        "Latitude(deg)": -40.83335872900158,
        "Longitude(deg)": -20.821041376149477,
        "Mean Anomaly(deg)": -112.84586807300286,
        "RAAN(deg)": 199.99841550336404,
        "Satellite Name": "Constellation 1 895",
        "Satellite Number": 895,
        "Semi-Major Axis(m)": 7083131.272910544,
        "Time(s)": 28
    },
    {
        "Altitude(m)": 716107.4386879355,
        "Argument of Periapsis(deg)": 0.001738492181116763,
        "Eccentricity": 0.0,
        "Inclination(deg)": 45.0,
        "Latitude(deg)": -40.855271508777065,
        "Longitude(deg)": -20.750668770972926,
        "Mean Anomaly(deg)": -112.78516693275294,
        "RAAN(deg)": 199.9983589141985,
        "Satellite Name": "Constellation 1 895",
        "Satellite Number": 895,
        "Semi-Major Axis(m)": 7083131.272910544,
        "Time(s)": 29
    },
    {
        "Altitude(m)": 716116.4907335105,
        "Argument of Periapsis(deg)": 0.0017984401873621684,
        "Eccentricity": 0.0,
        "Inclination(deg)": 45.0,
        "Latitude(deg)": -40.87713607345524,
        "Longitude(deg)": -20.680247414775174,
        "Mean Anomaly(deg)": -112.72446579250305,
        "RAAN(deg)": 199.9983023250329,
        "Satellite Name": "Constellation 1 895",
        "Satellite Number": 895,
        "Semi-Major Axis(m)": 7083131.272910544,
        "Time(s)": 30
    },
    {
        "Altitude(m)": 716125.5228710498,
        "Argument of Periapsis(deg)": 0.0018583881936075745,
        "Eccentricity": 0.0,
        "Inclination(deg)": 45.0,
        "Latitude(deg)": -40.898952355151366,
        "Longitude(deg)": -20.60977700924618,
        "Mean Anomaly(deg)": -112.66376465225312,
        "RAAN(deg)": 199.99824573586733,
        "Satellite Name": "Constellation 1 895",
        "Satellite Number": 895,
        "Semi-Major Axis(m)": 7083131.272910544,
        "Time(s)": 31
    },
    {
        "Altitude(m)": 716134.5350674978,
        "Argument of Periapsis(deg)": 0.0019183361998529795,
        "Eccentricity": 0.0,
        "Inclination(deg)": 45.0,
        "Latitude(deg)": -40.92072028601492,
        "Longitude(deg)": -20.539257760862643,
        "Mean Anomaly(deg)": -112.60306351200327,
        "RAAN(deg)": 199.99818914670178,
        "Satellite Name": "Constellation 1 895",
        "Satellite Number": 895,
        "Semi-Major Axis(m)": 7083131.272910544,
        "Time(s)": 32
    },
    {
        "Altitude(m)": 716143.5272898723,
        "Argument of Periapsis(deg)": 0.0019782842060983856,
        "Eccentricity": 0.0,
        "Inclination(deg)": 45.0,
        "Latitude(deg)": -40.9424397982293,
        "Longitude(deg)": -20.46868970849972,
        "Mean Anomaly(deg)": -112.54236237175331,
        "RAAN(deg)": 199.99813255753622,
        "Satellite Name": "Constellation 1 895",
        "Satellite Number": 895,
        "Semi-Major Axis(m)": 7083131.272910544,
        "Time(s)": 33
    },
    {
        "Altitude(m)": 716152.4995052656,
        "Argument of Periapsis(deg)": 0.0020382322123437906,
        "Eccentricity": 0.0,
        "Inclination(deg)": 45.0,
        "Latitude(deg)": -40.96411082401287,
        "Longitude(deg)": -20.39807289153025,
        "Mean Anomaly(deg)": -112.48166123150345,
        "RAAN(deg)": 199.99807596837064,
        "Satellite Name": "Constellation 1 895",
        "Satellite Number": 895,
        "Semi-Major Axis(m)": 7083131.272910544,
        "Time(s)": 34
    },
    {
        "Altitude(m)": 716161.4516808362,
        "Argument of Periapsis(deg)": 0.002098180218589197,
        "Eccentricity": 0.0,
        "Inclination(deg)": 45.0,
        "Latitude(deg)": -40.98573329561956,
        "Longitude(deg)": -20.32740734982503,
        "Mean Anomaly(deg)": -112.42096009125355,
        "RAAN(deg)": 199.9980193792051,
        "Satellite Name": "Constellation 1 895",
        "Satellite Number": 895,
        "Semi-Major Axis(m)": 7083131.272910544,
        "Time(s)": 35
    },
    {
        "Altitude(m)": 716170.3837838245,
        "Argument of Periapsis(deg)": 0.002158128224834602,
        "Eccentricity": 0.0,
        "Inclination(deg)": 45.0,
        "Latitude(deg)": -41.007307145339766,
        "Longitude(deg)": -20.256693123754257,
        "Mean Anomaly(deg)": -112.36025895100362,
        "RAAN(deg)": 199.99796279003948,
        "Satellite Name": "Constellation 1 895",
        "Satellite Number": 895,
        "Semi-Major Axis(m)": 7083131.272910544,
        "Time(s)": 36
    },
    {
        "Altitude(m)": 716179.2957815239,
        "Argument of Periapsis(deg)": 0.002218076231080008,
        "Eccentricity": 0.0,
        "Inclination(deg)": 45.0,
        "Latitude(deg)": -41.02883230550116,
        "Longitude(deg)": -20.18593042228578,
        "Mean Anomaly(deg)": -112.29955781075377,
        "RAAN(deg)": 199.99790620087393,
        "Satellite Name": "Constellation 1 895",
        "Satellite Number": 895,
        "Semi-Major Axis(m)": 7083131.272910544,
        "Time(s)": 37
    }
]